{"fetched_at":"2026-05-03T06:27:58Z","count":17151,"tles":[{"name":"STARLINK-37463","line1":"1 68854U 26094R   26122.41670139 -.01691756  87641-3 -32239-2 0  9993","line2":"2 68854  97.2814 136.0765 0001308  87.7863 147.4570 16.00767926  2007","category":"Starlink"}]}