{
  "norad_id": 68854,
  "name": "STARLINK-37463",
  "history": [
    {
      "epoch": "2026-05-02T10:00:03.000096Z",
      "apogee_km": 273.160815598063,
      "perigee_km": 271.42106364905703,
      "latitude_deg": -54.84060170306692,
      "longitude_deg": -64.66273110449474,
      "height_km": 294.3881614047989,
      "semi_major_axis_km": 6650.42793962356,
      "eccentricity": 0.0001308,
      "inclination_deg": 97.2814,
      "raan_deg": 136.0765,
      "arg_perigee_deg": 87.7863,
      "mean_anomaly_deg": 147.457,
      "mean_motion_rev_day": 16.00767926
    }
  ]
}